COMMENT,ORIGINATOR,NORAD_CAT_ID,OBJECT_NAME,OBJECT_TYPE,CLASSIFICATION_TYPE,INTLDES,EPOCH,EPOCH_MICROSECONDS,MEAN_MOTION,ECCENTRICITY,INCLINATION,RA_OF_ASC_NODE,ARG_OF_PERICENTER,MEAN_ANOMALY,EPHEMERIS_TYPE,ELEMENT_SET_NO,REV_AT_EPOCH,BSTAR,MEAN_MOTION_DOT,MEAN_MOTION_DDOT,FILE,TLE_LINE0,TLE_LINE1,TLE_LINE2,OBJECT_ID,OBJECT_NUMBER,SEMIMAJOR_AXIS,PERIOD,APOGEE,PERIGEE,DECAYED
"GENERATED VIA SPACETRACK.ORG API","18 SPCS","47950","OBJECT U","TBA","U","21022U","2021-07-11 03:05:07","271232","15.05719033","0.0019986","97.5559","93.7806","230.1187","266.9004","0","999","1661","0.00004701","0.00000621","0","3074762","0 OBJECT U","1 47950U 21022U   21192.12855638  .00000621  00000-0  47010-4 0  9990","2 47950  97.5559  93.7806 0019986 230.1187 266.9004 15.05719033 16610","2021-022U","47950","6927.436","95.635","563.147","535.456","0"
"GENERATED VIA SPACETRACK.ORG API","18 SPCS","47950","OBJECT U","TBA","U","21022U","2021-07-11 10:57:48","192192","15.05718756","0.0020027","97.5557","94.102","228.909","246.3032","0","999","1666","0.000041344","0.00000538","0","3074963","0 OBJECT U","1 47950U 21022U   21192.45680778  .00000538  00000-0  41344-4 0  9998","2 47950  97.5557  94.1020 0020027 228.9090 246.3032 15.05718756 16666","2021-022U","47950","6927.437","95.635","563.176","535.429","0"
"GENERATED VIA SPACETRACK.ORG API","18 SPCS","47950","OBJECT U","TBA","U","21022U","2021-07-11 15:30:13","605984","15.05718949","0.0020027","97.5554","94.2871","228.2705","191.7798","0","999","1669","0.00004126","0.00000537","0","3074977","0 OBJECT U","1 47950U 21022U   21192.64599081  .00000537  00000-0  41260-4 0  9991","2 47950  97.5554  94.2871 0020027 228.2705 191.7798 15.05718949 16693","2021-022U","47950","6927.437","95.635","563.175","535.428","0"
"GENERATED VIA SPACETRACK.ORG API","18 SPCS","47950","OBJECT U","TBA","U","21022U","2021-07-11 17:11:06","110016","15.05719038","0.0020042","97.5554","94.3557","227.9834","211.5522","0","999","1670","0.00004126","0.00000537","0","3075149","0 OBJECT U","1 47950U 21022U   21192.71604294  .00000537  00000-0  41260-4 0  9992","2 47950  97.5554  94.3557 0020042 227.9834 211.5522 15.05719038 16709","2021-022U","47950","6927.436","95.635","563.185","535.417","0"
"GENERATED VIA SPACETRACK.ORG API","18 SPCS","47950","OBJECT U","TBA","U","21022U","2021-07-11 22:12:15","150240","15.05718954","0.0020026","97.5553","94.5605","227.242","265.1995","0","999","1673","0.000038685","0.000005","0","3075158","0 OBJECT U","1 47950U 21022U   21192.92517535  .00000500  00000-0  38685-4 0  9993","2 47950  97.5553  94.5605 0020026 227.2420 265.1995 15.05718954 16738","2021-022U","47950","6927.437","95.635","563.175","535.429","0"
"GENERATED VIA SPACETRACK.ORG API","18 SPCS","47950","OBJECT U","TBA","U","21022U","2021-07-12 06:07:39","521856","15.05718789","0.0020044","97.5551","94.8838","226.1059","254.7779","0","999","1678","0.000034266","0.00000435","0","3075404","0 OBJECT U","1 47950U 21022U   21193.25531854  .00000435  00000-0  34266-4 0  9998","2 47950  97.5551  94.8838 0020044 226.1059 254.7779 15.05718789 16788","2021-022U","47950","6927.437","95.635","563.188","535.417","0"
"GENERATED VIA SPACETRACK.ORG API","18 SPCS","47950","OBJECT U","TBA","U","21022U","2021-07-12 14:05:30","181632","15.05718366","0.002008","97.5549","95.2084","224.837","253.6594","0","999","1683","0.000028672","0.00000354","0","3075613","0 OBJECT U","1 47950U 21022U   21193.58715488  .00000354  00000-0  28672-4 0  9995","2 47950  97.5549  95.2084 0020080 224.8370 253.6594 15.05718366 16834","2021-022U","47950","6927.438","95.635","563.214","535.393","0"
"GENERATED VIA SPACETRACK.ORG API","18 SPCS","47950","OBJECT U","TBA","U","21022U","2021-07-12 14:05:30","181632","15.05718366","0.002008","97.5549","95.2084","224.837","253.6594","0","999","1683","0.000028672","0.00000354","0","3075625","0 OBJECT U","1 47950U 21022U   21193.58715488  .00000354  00000-0  28672-4 0  9995","2 47950  97.5549  95.2084 0020080 224.8370 253.6594 15.05718366 16834","2021-022U","47950","6927.438","95.635","563.214","535.393","0"
"GENERATED VIA SPACETRACK.ORG API","18 SPCS","47950","OBJECT U","TBA","U","21022U","2021-07-12 20:14:06","251424","15.05718352","0.0020096","97.5548","95.4592","223.9322","201.2148","0","999","1687","0.000026684","0.00000325","0","3075810","0 OBJECT U","1 47950U 21022U   21193.84312791  .00000325  00000-0  26684-4 0  9993","2 47950  97.5548  95.4592 0020096 223.9322 201.2148 15.05718352 16876","2021-022U","47950","6927.438","95.635","563.225","535.382","0"
"GENERATED VIA SPACETRACK.ORG API","18 SPCS","47950","OBJECT U","TBA","U","21022U","2021-07-12 20:14:06","251424","15.05718352","0.0020096","97.5548","95.4592","223.9322","201.2148","0","999","1687","0.000026684","0.00000325","0","3075815","0 OBJECT U","1 47950U 21022U   21193.84312791  .00000325  00000-0  26684-4 0  9993","2 47950  97.5548  95.4592 0020096 223.9322 201.2148 15.05718352 16876","2021-022U","47950","6927.438","95.635","563.225","535.382","0"
"GENERATED VIA SPACETRACK.ORG API","18 SPCS","47950","OBJECT U","TBA","U","21022U","2021-07-13 07:42:59","963040","15.05717866","0.0020131","97.5547","95.9276","222.2671","274.4504","0","999","1694","0.000019609","0.00000223","0","3076020","0 OBJECT U","1 47950U 21022U   21194.32152735  .00000223  00000-0  19609-4 0  9993","2 47950  97.5547  95.9276 0020131 222.2671 274.4504 15.05717866 16943","2021-022U","47950","6927.440","95.635","563.251","535.359","0"
"GENERATED VIA SPACETRACK.ORG API","18 SPCS","47950","OBJECT U","TBA","U","21022U","2021-07-13 10:48:49","757760","15.05717406","0.0020162","97.5546","96.0538","221.7511","254.0418","0","999","1696","0.000015584","0.00000164","0","3076232","0 OBJECT U","1 47950U 21022U   21194.45057590  .00000164  00000-0  15584-4 0  9992","2 47950  97.5546  96.0538 0020162 221.7511 254.0418 15.05717406 16966","2021-022U","47950","6927.441","95.635","563.274","535.339","0"
"GENERATED VIA SPACETRACK.ORG API","18 SPCS","47950","OBJECT U","TBA","U","21022U","2021-07-13 18:35:58","978752","15.05717457","0.0020172","97.5544","96.3716","220.6848","212.5061","0","999","1701","0.000014393","0.00000147","0","3076456","0 OBJECT U","1 47950U 21022U   21194.77498818  .00000147  00000-0  14393-4 0  9997","2 47950  97.5544  96.3716 0020172 220.6848 212.5061 15.05717457 17013","2021-022U","47950","6927.441","95.635","563.280","535.332","0"
"GENERATED VIA SPACETRACK.ORG API","18 SPCS","47950","OBJECT U","TBA","U","21022U","2021-07-13 23:36:20","397888","15.0571721","0.002017","97.5544","96.5758","219.9081","263.2021","0","999","1704","0.000011598","0.00000106","0","3076448","0 OBJECT U","1 47950U 21022U   21194.98356942  .00000106  00000-0  11598-4 0  9990","2 47950  97.5544  96.5758 0020170 219.9081 263.2021 15.05717210 17048","2021-022U","47950","6927.442","95.635","563.280","535.334","0"
"GENERATED VIA SPACETRACK.ORG API","18 SPCS","47950","OBJECT U","TBA","U","21022U","2021-07-13 23:36:20","397888","15.0571721","0.002017","97.5544","96.5758","219.9081","263.2021","0","999","1704","0.000011598","0.00000106","0","3076892","0 OBJECT U","1 47950U 21022U   21194.98356942  .00000106  00000-0  11598-4 0  9990","2 47950  97.5544  96.5758 0020170 219.9081 263.2021 15.05717210 17048","2021-022U","47950","6927.442","95.635","563.280","535.334","0"
"GENERATED VIA SPACETRACK.ORG API","18 SPCS","47950","OBJECT U","TBA","U","21022U","2021-07-14 21:58:06","186432","15.05716307","0.0020256","97.5542","97.4883","216.6835","274.0347","0","999","1718","0.0000017969","-0.00000036","0","3077126","0 OBJECT U","1 47950U 21022U   21195.91534938 -.00000036  00000-0  17969-5 0  9999","2 47950  97.5542  97.4883 0020256 216.6835 274.0347 15.05716307 17183","2021-022U","47950","6927.445","95.636","563.342","535.278","0"
"GENERATED VIA SPACETRACK.ORG API","18 SPCS","47950","OBJECT U","TBA","U","21022U","2021-07-15 09:01:55","720704","15.05715758","0.0020315","97.5539","97.9392","215.0662","252.9112","0","999","1725","-0.0000035571","-0.00000114","0","3077299","0 OBJECT U","1 47950U 21022U   21196.37633936 -.00000114  00000-0 -35571-5 0  9995","2 47950  97.5539  97.9392 0020315 215.0662 252.9112 15.05715758 17258","2021-022U","47950","6927.446","95.636","563.385","535.238","0"
"GENERATED VIA SPACETRACK.ORG API","18 SPCS","47950","OBJECT U","TBA","U","21022U","2021-07-16 15:09:53","252640","15.05716474","0.0020522","97.5531","99.1675","210.652","218.7362","0","999","1744","0.0000013458","-0.00000043","0","3077885","0 OBJECT U","1 47950U 21022U   21197.63186635 -.00000043  00000-0  13458-5 0  9994","2 47950  97.5531  99.1675 0020522 210.6520 218.7362 15.05716474 17446","2021-022U","47950","6927.444","95.636","563.526","535.093","0"
"GENERATED VIA SPACETRACK.ORG API","18 SPCS","47950","OBJECT U","TBA","U","21022U","2021-07-16 15:09:53","252640","15.05716474","0.0020522","97.5531","99.1675","210.652","218.7362","0","999","1744","0.0000013458","-0.00000043","0","3077908","0 OBJECT U","1 47950U 21022U   21197.63186635 -.00000043  00000-0  13458-5 0  9994","2 47950  97.5531  99.1675 0020522 210.6520 218.7362 15.05716474 17446","2021-022U","47950","6927.444","95.636","563.526","535.093","0"
"GENERATED VIA SPACETRACK.ORG API","18 SPCS","47950","OBJECT U","TBA","U","21022U","2021-07-16 21:31:10","695648","15.05716881","0.0020577","97.5529","99.4267","209.8378","213.9407","0","999","1748","0.000003906","-0.00000005","0","3078142","0 OBJECT U","1 47950U 21022U   21197.89665157 -.00000005  00000-0  39060-5 0  9998","2 47950  97.5529  99.4267 0020577 209.8378 213.9407 15.05716881 17487","2021-022U","47950","6927.443","95.636","563.563","535.053","0"
